#dP2019  3 16  0  0  0.00000000      96 __u+U IGS08 FIT  IAC
## 2044 518400.00000000   900.00000000 58558 0.0000000000000
+   96   C01C02C03C04C05C06C07C08C09C10C11C12C13C14C16E01E02
+        E03E04E05E07E08E09E11E12E13E14E15E18E19E21E24E25E26
+        E27E30E31E33E36G01G02G03G04G05G06G07G08G09G10G11G12
+        G13G14G15G17G18G19G20G21G22G23G24G25G26G27G28G29G30
+        G31G32J01J02J03R01R02R03R04R05R07R08R09R10R11R13R14
+        R15R16R17R18R19R20R21R22R23R24R26  0  0  0  0  0  0
++        12 12 12 12 12  8  8  8  8  8  8  7  8  7  8  4  4
++         4  5  4  5  4  4  4  4  4  5  4  4  4  4  4  4  4
++         4  4  4  4  5  3  3  3  4  3  3  3  3  3  3  3  3
++         3  3  3  3  4  3  3  3  3  3  3  3  3  3  3  3  3
++         3  3  9  9 10  6  7  5  5  5  5  5  5  5  5  6  5
++         5  6  5  5  7  6  5  5  5  6  8  0  0  0  0  0  0
%c M  cc GPS ccc cccc cccc cccc cccc ccccc ccccc ccccc ccccc
%c cc cc ccc ccc cccc cccc cccc cccc ccccc ccccc ccccc ccccc
%f  1.2500000  1.025000000  0.00000000000  0.000000000000000
%f  0.0000000  0.000000000  0.00000000000  0.000000000000000
%i    0    0    0    0      0      0      0      0         0
%i    0    0    0    0      0      0      0      0         0
/* INFORMATION & ANALYSIS CENTER (IAC)            FINAL DATA
/* S/V CLOCKS ARE ALIGNED TO GPS & GLONASS TIME RESPECTIVELY
/* USING THE BROADCAST EPHEMERIS                            
/* PCV:IGS14_2038 OL/AL:FES2004  NONE     YN ORB:CoN CLK:CoN
*  2019 03 16 20 45  0.00000000
PC01 -32301.868984  27081.489731   -992.683562    339.252048
PC02   4485.640036  41917.039612   1005.682814   -381.273580
PC03 -14799.982918  39521.986657   -243.331855    -46.264769
PC04 -39610.863443  14402.976906   -542.637886     15.992555
PC05  21890.348866  36039.621951   1297.724271   -126.973763
PC06  -6864.663624  30792.915248  28449.856336    541.038658
PC07 -19538.091487  23239.753488 -29286.503717     93.981823
PC08 -21132.111342  36304.610753    900.260284    130.126235
PC09   4037.842127  38178.421242  18016.983540    610.773097
PC10  -5385.347918  25663.149495 -32927.191139   -579.853572
PC11  -2391.240297 -27770.603527  -1802.902421    -54.163865
PC12  13052.020291 -13406.159258  20796.951383    497.698297
PC13 -11104.522300  38007.969541  14203.626593   -597.182178
PC14   3074.579014 -16106.268427 -22512.102635    757.369563
PC16  -3164.720515  32675.046607  26565.165921   -378.723291
PE01  20804.543135   8843.229315 -19116.091913   -563.531399
PE02 -20831.729931  -8813.054912  19080.123031     51.770319
PE03 -21198.063150 -20282.835202   3977.842503   -144.628515
PE04  21829.165488   4052.172623 -19572.213984   -241.728586
PE05  -8129.117797 -24741.730100 -14066.954711     90.515932
PE07  -9643.078233  14711.010008  23813.237304   -150.426966
PE08 -21752.366440  -3862.459602  19708.808526   6387.826837
PE09   9378.726518 -14722.131002 -23900.609339   6498.237099
PE11  14348.409252 -24355.950215   8742.378859   5715.255768
PE12  18026.190933  -6206.041758  22646.817660   6387.443263
PE13 -14267.412333  24362.342326  -8899.820736    384.299432
PE14 -21333.191673  -8181.863172 -22034.535596   6430.378057
PE15 -17953.183071   6739.231667 -22536.621503    916.958532
PE18  15066.657695  15005.268537  12711.352247   -593.407974
PE19  20424.362248  21325.389039  -2095.501242     -7.700521
PE21   -138.538305  16516.303353 -24571.292990   -524.399487
PE24  20532.515313 -14418.659193  15707.881596   6181.952209
PE25    200.938624 -16520.399614  24559.719768   1863.496314
PE26  -2417.942277  27791.256313   9914.107400   4790.963202
PE27 -20797.644215  14360.893004 -15405.721814    509.207083
PE30 -29240.948148   3875.216342   2376.731311   5027.616088
PE31  29225.103628  -3786.690103  -2780.568721    881.439194
PE33  11142.793420  14902.180250  23036.465764    847.947369
PE36   2226.533135 -27770.067320  -9974.710761    735.715951
PG01  12843.190983 -22161.491197  -6534.300865   -182.133183
PG02 -19708.191350  10788.655869 -13423.621102   -165.193453
PG03   8522.508587 -13524.230907 -21232.432559    186.567251
PG04 -10474.936026 -24194.846328   3228.110243    134.670846
PG05 -24710.831663   3164.403292   9377.834339      1.177131
PG06 -16732.763757  -1640.041886 -20520.073896    253.604365
PG07    755.116334 -19927.632407  17554.841413     13.645367
PG08   9239.388789 -14528.114962  20210.559632   -136.405644
PG09  -7654.416081 -25285.729488  -2728.877523    444.173039
PG10  21569.884574  11328.609690  10865.070471     95.710317
PG11   9084.320030 -24794.952928   3322.058212   -643.861239
PG12 -10535.595540  12071.721867 -21356.578257    259.569128
PG13 -13892.364463   6084.061638  21686.424608    -71.462241
PG14  16070.792430  10897.919922 -17893.223866    -88.097539
PG15  -7344.665869  16995.364273  18646.159582   -323.217115
PG17 -13991.881074 -19209.839404 -11544.846848     24.431603
PG18  17405.205724 -19671.977811   2903.490967     35.432601
PG19 -15702.586016 -11109.944657 -18566.191271   -341.549963
PG20  13805.922564  14007.010445  17806.518664    523.154846
PG21   4089.565138  18281.003977  19686.665665   -231.206279
PG22  16411.261834 -11355.189584 -17259.211940   -665.537302
PG23    822.853791 -22992.550239 -12585.234654   -193.789210
PG24 -14493.492720  21950.384942  -2181.810709    -63.478126
PG25   3083.329255  15518.305835 -21577.557262   -733.927905
PG26  26431.052041   3383.077899    721.009327    150.963969
PG27  14595.173956  -3027.241113  21904.252807    -87.585459
PG28 -19398.704673 -13708.649554  12393.649570    766.395878
PG29   2360.691580  25372.345164  -7521.559724    247.824227
PG30  -9510.092232 -12642.341692  21334.664936    -69.634760
PG31  17866.701529    664.152176 -19776.529463     51.708084
PG32  16326.253452  15869.553755 -13724.170833   -177.931108
PJ01 -25157.342343  24244.631214  28608.499446   -345.084402
PJ02 -35899.310450  20538.500505  -3634.869324      0.319764
PJ03 -19274.828930  25833.744246 -22563.163376     -0.300897
PR01  21116.924738  14061.658341  -2567.095155     40.927376
PR02  16227.465796    745.503759 -19646.608568    359.096440
PR03   1779.983022 -12048.551152 -22366.303977     -7.597108
PR04 -14132.589841 -17734.076363 -11648.294789    298.836669
PR05 -21230.305784 -13221.013791   4973.213339     24.187826
PR07  -1285.869520  12388.849515  22301.011969    -59.997056
PR08  13537.992336  17767.452441  12376.388495     18.621608
PR09 -23350.993925  10273.108205  -1260.996790     59.446810
PR10 -14555.526159  13766.904014 -15861.566915     45.182403
PR11   4125.011649  10264.569706 -22976.139063    -59.899915
PR13  23509.145433  -9895.693009   -306.763861    -21.309496
PR14  14263.212311 -14028.514624  15825.439824     36.971797
PR15  -3175.032834 -10462.574975  23060.431383    100.667588
PR16 -18937.606247   -664.664554  16982.811777     10.732101
PR17   6729.472981 -23368.113346   7763.479259    212.622270
PR18  -1047.724223 -23695.976470  -9279.026080     36.736030
PR19  -7938.654289 -11413.658098 -21378.639212     48.421828
PR20 -11026.806461   9435.939334 -20979.256669   -371.963686
PR21  -6464.136711  23597.873339  -7176.552219    -36.922154
PR22   2156.463887  22665.513285  11647.351684     -9.738647
PR23   9585.422966   6041.626728  22852.366833    215.738747
PR24  10760.449709 -11202.921024  20206.464437   -178.279196
PR26 -10953.472214   7116.254926 -21889.682364      1.699567
EOF
